[{"OBJECT_NAME":"STARLINK-36327","OBJECT_ID":"2026-026T","EPOCH":"2026-03-05T06:00:02.999808","MEAN_MOTION":15.68737686,"ECCENTRICITY":0.00014856,"INCLINATION":97.2839,"RA_OF_ASC_NODE":118.7441,"ARG_OF_PERICENTER":52.9513,"MEAN_ANOMALY":327.6327,"EPHEMERIS_TYPE":0,"CLASSIFICATION_TYPE":"U","NORAD_CAT_ID":67738,"ELEMENT_SET_NO":999,"REV_AT_EPOCH":460,"BSTAR":-0.019906421,"MEAN_MOTION_DOT":-0.01997775,"MEAN_MOTION_DDOT":0},{"OBJECT_NAME":"STARLINK-36329","OBJECT_ID":"2026-026U","EPOCH":"2026-03-05T06:00:02.999808","MEAN_MOTION":15.6977919,"ECCENTRICITY":0.0001703,"INCLINATION":97.2838,"RA_OF_ASC_NODE":118.7649,"ARG_OF_PERICENTER":55.2782,"MEAN_ANOMALY":23.689,"EPHEMERIS_TYPE":0,"CLASSIFICATION_TYPE":"U","NORAD_CAT_ID":67739,"ELEMENT_SET_NO":999,"REV_AT_EPOCH":460,"BSTAR":-0.019147016,"MEAN_MOTION_DOT":-0.02005554,"MEAN_MOTION_DDOT":0},{"OBJECT_NAME":"STARLINK-36737","OBJECT_ID":"2026-026V","EPOCH":"2026-03-05T06:00:02.999808","MEAN_MOTION":15.68896525,"ECCENTRICITY":0.00015152,"INCLINATION":97.2839,"RA_OF_ASC_NODE":118.7475,"ARG_OF_PERICENTER":55.4689,"MEAN_ANOMALY":335.4544,"EPHEMERIS_TYPE":0,"CLASSIFICATION_TYPE":"U","NORAD_CAT_ID":67740,"ELEMENT_SET_NO":999,"REV_AT_EPOCH":460,"BSTAR":-0.01983493,"MEAN_MOTION_DOT":-0.02003029,"MEAN_MOTION_DDOT":0},{"OBJECT_NAME":"STARLINK-36740","OBJECT_ID":"2026-026W","EPOCH":"2026-03-05T06:00:02.999808","MEAN_MOTION":15.64630392,"ECCENTRICITY":0.00014064,"INCLINATION":97.2837,"RA_OF_ASC_NODE":118.7402,"ARG_OF_PERICENTER":52.1006,"MEAN_ANOMALY":316.4567,"EPHEMERIS_TYPE":0,"CLASSIFICATION_TYPE":"U","NORAD_CAT_ID":67741,"ELEMENT_SET_NO":999,"REV_AT_EPOCH":460,"BSTAR":-0.023462093,"MEAN_MOTION_DOT":-0.01993703,"MEAN_MOTION_DDOT":0},{"OBJECT_NAME":"STARLINK-36693","OBJECT_ID":"2026-026X","EPOCH":"2026-03-05T06:00:02.999808","MEAN_MOTION":15.6529531,"ECCENTRICITY":0.00013374,"INCLINATION":97.2839,"RA_OF_ASC_NODE":118.7345,"ARG_OF_PERICENTER":58.1225,"MEAN_ANOMALY":297.1893,"EPHEMERIS_TYPE":0,"CLASSIFICATION_TYPE":"U","NORAD_CAT_ID":67742,"ELEMENT_SET_NO":999,"REV_AT_EPOCH":473,"BSTAR":-0.02283142,"MEAN_MOTION_DOT":-0.01992479,"MEAN_MOTION_DDOT":0},{"OBJECT_NAME":"STARLINK-36717","OBJECT_ID":"2026-026Y","EPOCH":"2026-03-05T06:00:02.999808","MEAN_MOTION":15.67410083,"ECCENTRICITY":0.00015071,"INCLINATION":97.2841,"RA_OF_ASC_NODE":118.7509,"ARG_OF_PERICENTER":57.9546,"MEAN_ANOMALY":339.1554,"EPHEMERIS_TYPE":0,"CLASSIFICATION_TYPE":"U","NORAD_CAT_ID":67743,"ELEMENT_SET_NO":999,"REV_AT_EPOCH":473,"BSTAR":-0.02111172,"MEAN_MOTION_DOT":-0.02005348,"MEAN_MOTION_DDOT":0},{"OBJECT_NAME":"STARLINK-36692","OBJECT_ID":"2026-026Z","EPOCH":"2026-03-05T06:00:02.999808","MEAN_MOTION":15.66161222,"ECCENTRICITY":0.00014126,"INCLINATION":97.284,"RA_OF_ASC_NODE":118.742,"ARG_OF_PERICENTER":57.4515,"MEAN_ANOMALY":317.4053,"EPHEMERIS_TYPE":0,"CLASSIFICATION_TYPE":"U","NORAD_CAT_ID":67744,"ELEMENT_SET_NO":999,"REV_AT_EPOCH":460,"BSTAR":-0.022046492,"MEAN_MOTION_DOT":-0.01992283,"MEAN_MOTION_DDOT":0},{"OBJECT_NAME":"2026-027A","OBJECT_ID":"2026-027A","EPOCH":"2026-03-05T06:51:45.749952","MEAN_MOTION":15.17609261,"ECCENTRICITY":0.00098547,"INCLINATION":97.4902,"RA_OF_ASC_NODE":193.3458,"ARG_OF_PERICENTER":209.5874,"MEAN_ANOMALY":150.4803,"EPHEMERIS_TYPE":0,"CLASSIFICATION_TYPE":"U","NORAD_CAT_ID":67746,"ELEMENT_SET_NO":999,"REV_AT_EPOCH":319,"BSTAR":0.000567636,"MEAN_MOTION_DOT":0.00011368,"MEAN_MOTION_DDOT":0},{"OBJECT_NAME":"2026-027B","OBJECT_ID":"2026-027B","EPOCH":"2026-03-05T06:49:44.920416","MEAN_MOTION":15.17709523,"ECCENTRICITY":0.00099713,"INCLINATION":97.4898,"RA_OF_ASC_NODE":193.3461,"ARG_OF_PERICENTER":212.1959,"MEAN_ANOMALY":147.8667,"EPHEMERIS_TYPE":0,"CLASSIFICATION_TYPE":"U","NORAD_CAT_ID":67747,"ELEMENT_SET_NO":999,"REV_AT_EPOCH":319,"BSTAR":0.00056263993,"MEAN_MOTION_DOT":0.000113,"MEAN_MOTION_DDOT":0},{"OBJECT_NAME":"2026-027C","OBJECT_ID":"2026-027C","EPOCH":"2026-03-05T06:47:47.109696","MEAN_MOTION":15.17744671,"ECCENTRICITY":0.00103363,"INCLINATION":97.4908,"RA_OF_ASC_NODE":193.3512,"ARG_OF_PERICENTER":214.8533,"MEAN_ANOMALY":145.2024,"EPHEMERIS_TYPE":0,"CLASSIFICATION_TYPE":"U","NORAD_CAT_ID":67748,"ELEMENT_SET_NO":999,"REV_AT_EPOCH":319,"BSTAR":0.00040960266,"MEAN_MOTION_DOT":8.213e-5,"MEAN_MOTION_DDOT":0},{"OBJECT_NAME":"2026-027D","OBJECT_ID":"2026-027D","EPOCH":"2026-03-05T06:43:34.719744","MEAN_MOTION":15.18054694,"ECCENTRICITY":0.00099869,"INCLINATION":97.4904,"RA_OF_ASC_NODE":193.354,"ARG_OF_PERICENTER":219.9418,"MEAN_ANOMALY":140.1082,"EPHEMERIS_TYPE":0,"CLASSIFICATION_TYPE":"U","NORAD_CAT_ID":67749,"ELEMENT_SET_NO":999,"REV_AT_EPOCH":314,"BSTAR":0.00066441616,"MEAN_MOTION_DOT":0.00013493,"MEAN_MOTION_DDOT":0},{"OBJECT_NAME":"2026-027E","OBJECT_ID":"2026-027E","EPOCH":"2026-03-05T06:43:41.296512","MEAN_MOTION":15.18016619,"ECCENTRICITY":0.00091978,"INCLINATION":97.4915,"RA_OF_ASC_NODE":193.357,"ARG_OF_PERICENTER":220.749,"MEAN_ANOMALY":139.3057,"EPHEMERIS_TYPE":0,"CLASSIFICATION_TYPE":"U","NORAD_CAT_ID":67750,"ELEMENT_SET_NO":999,"REV_AT_EPOCH":319,"BSTAR":0.00056311541,"MEAN_MOTION_DOT":0.00011408,"MEAN_MOTION_DDOT":0},{"OBJECT_NAME":"2026-027F","OBJECT_ID":"2026-027F","EPOCH":"2026-03-05T06:40:47.929728","MEAN_MOTION":15.18298703,"ECCENTRICITY":0.00103591,"INCLINATION":97.4914,"RA_OF_ASC_NODE":193.36,"ARG_OF_PERICENTER":221.5482,"MEAN_ANOMALY":138.4965,"EPHEMERIS_TYPE":0,"CLASSIFICATION_TYPE":"U","NORAD_CAT_ID":67751,"ELEMENT_SET_NO":999,"REV_AT_EPOCH":319,"BSTAR":0.00089808757,"MEAN_MOTION_DOT":0.00018405,"MEAN_MOTION_DDOT":0},{"OBJECT_NAME":"2026-027G","OBJECT_ID":"2026-027G","EPOCH":"2026-03-04T05:23:16.160640","MEAN_MOTION":15.18028016,"ECCENTRICITY":0.00094052,"INCLINATION":97.4907,"RA_OF_ASC_NODE":192.313,"ARG_OF_PERICENTER":225.832,"MEAN_ANOMALY":134.2142,"EPHEMERIS_TYPE":0,"CLASSIFICATION_TYPE":"U","NORAD_CAT_ID":67752,"ELEMENT_SET_NO":999,"REV_AT_EPOCH":303,"BSTAR":0.00080953139,"MEAN_MOTION_DOT":0.00016447,"MEAN_MOTION_DDOT":0},{"OBJECT_NAME":"JIELONG-3 R/B","OBJECT_ID":"2026-027H","EPOCH":"2026-03-05T07:28:18.083424","MEAN_MOTION":15.7141867,"ECCENTRICITY":0.02280821,"INCLINATION":97.5128,"RA_OF_ASC_NODE":194.9848,"ARG_OF_PERICENTER":260.9278,"MEAN_ANOMALY":96.6115,"EPHEMERIS_TYPE":0,"CLASSIFICATION_TYPE":"U","NORAD_CAT_ID":67753,"ELEMENT_SET_NO":999,"REV_AT_EPOCH":329,"BSTAR":0.00064781491,"MEAN_MOTION_DOT":0.00439595,"MEAN_MOTION_DDOT":2.37724e-6},{"OBJECT_NAME":"JIELONG-3 DEB","OBJECT_ID":"2026-027J","EPOCH":"2026-03-05T07:13:36.807744","MEAN_MOTION":15.98266829,"ECCENTRICITY":0.01459137,"INCLINATION":97.5042,"RA_OF_ASC_NODE":195.303,"ARG_OF_PERICENTER":260.6585,"MEAN_ANOMALY":97.8169,"EPHEMERIS_TYPE":0,"CLASSIFICATION_TYPE":"U","NORAD_CAT_ID":67754,"ELEMENT_SET_NO":999,"REV_AT_EPOCH":325,"BSTAR":0.0012562165,"MEAN_MOTION_DOT":0.01958762,"MEAN_MOTION_DDOT":2.449769e-6}]
